{
  "type": "FeatureCollection",
  "features": [
    {
      "type": "Feature",
      "properties": {
        "norad_id": 58701,
        "name": "TIANMU-1 16",
        "group": "weather",
        "lat": 5.719027932944228,
        "lon": 156.42515423814285,
        "alt_km": 492.2710812708674,
        "timestamp": "2025-12-02T06:27:52.664357+00:00",
        "meta_object_name": "TIANMU-1 16",
        "meta_object_id": "2024-004B",
        "meta_epoch": "2025-11-28T17:21:14.562144",
        "meta_mean_motion": 15.24146454,
        "meta_eccentricity": 0.00054689,
        "meta_inclination": 97.457,
        "meta_ra_of_asc_node": 153.6495,
        "meta_arg_of_pericenter": 351.9748,
        "meta_mean_anomaly": 8.1401,
        "meta_ephemeris_type": 0,
        "meta_classification_type": "U",
        "meta_norad_cat_id": 58701,
        "meta_element_set_no": 999,
        "meta_rev_at_epoch": 10521,
        "meta_bstar": 5.4123761e-05,
        "meta_mean_motion_dot": 1.245e-05,
        "meta_mean_motion_ddot": 0,
        "tle_line1": "1 58701U 24004B   25332.72308521  .00001245  00000+0  54124-4 0  9995",
        "tle_line2": "2 58701  97.4570 153.6495 0005468 351.9748   8.1401 15.24146454105217"
      },
      "geometry": {
        "type": "Point",
        "coordinates": [
          156.42515423814285,
          5.719027932944228
        ]
      }
    },
    {
      "type": "Feature",
      "properties": {
        "norad_id": 58702,
        "name": "TIANMU-1 17",
        "group": "weather",
        "lat": 82.47929383491991,
        "lon": 74.57712362016369,
        "alt_km": 486.39848937997704,
        "timestamp": "2025-12-02T06:27:52.664367+00:00",
        "meta_object_name": "TIANMU-1 17",
        "meta_object_id": "2024-004C",
        "meta_epoch": "2025-12-01T20:37:19.568064",
        "meta_mean_motion": 15.24246886,
        "meta_eccentricity": 0.0004432,
        "meta_inclination": 97.4602,
        "meta_ra_of_asc_node": 157.1742,
        "meta_arg_of_pericenter": 344.5644,
        "meta_mean_anomaly": 15.5457,
        "meta_ephemeris_type": 0,
        "meta_classification_type": "U",
        "meta_norad_cat_id": 58702,
        "meta_element_set_no": 999,
        "meta_rev_at_epoch": 10568,
        "meta_bstar": 0.00031657,
        "meta_mean_motion_dot": 7.655e-05,
        "meta_mean_motion_ddot": 0,
        "tle_line1": "1 58702U 24004C   25335.85925426  .00007655  00000+0  31657-3 0  9998",
        "tle_line2": "2 58702  97.4602 157.1742 0004432 344.5644  15.5457 15.24246886105685"
      },
      "geometry": {
        "type": "Point",
        "coordinates": [
          74.57712362016369,
          82.47929383491991
        ]
      }
    },
    {
      "type": "Feature",
      "properties": {
        "norad_id": 58703,
        "name": "TIANMU-1 18",
        "group": "weather",
        "lat": -1.03579037908995,
        "lon": -22.36045799769859,
        "alt_km": 498.7901838380776,
        "timestamp": "2025-12-02T06:27:52.664379+00:00",
        "meta_object_name": "TIANMU-1 18",
        "meta_object_id": "2024-004D",
        "meta_epoch": "2025-12-01T20:13:11.633664",
        "meta_mean_motion": 15.24240282,
        "meta_eccentricity": 0.0003804,
        "meta_inclination": 97.462,
        "meta_ra_of_asc_node": 157.3504,
        "meta_arg_of_pericenter": 346.3455,
        "meta_mean_anomaly": 13.7679,
        "meta_ephemeris_type": 0,
        "meta_classification_type": "U",
        "meta_norad_cat_id": 58703,
        "meta_element_set_no": 999,
        "meta_rev_at_epoch": 10568,
        "meta_bstar": 0.00029906,
        "meta_mean_motion_dot": 7.226e-05,
        "meta_mean_motion_ddot": 0,
        "tle_line1": "1 58703U 24004D   25335.84249576  .00007226  00000+0  29906-3 0  9991",
        "tle_line2": "2 58703  97.4620 157.3504 0003804 346.3455  13.7679 15.24240282105686"
      },
      "geometry": {
        "type": "Point",
        "coordinates": [
          -22.36045799769859,
          -1.03579037908995
        ]
      }
    },
    {
      "type": "Feature",
      "properties": {
        "norad_id": 58990,
        "name": "INSAT-3DS",
        "group": "weather",
        "lat": -0.014735870243359952,
        "lon": -109.56822933123713,
        "alt_km": 35779.977683115074,
        "timestamp": "2025-12-02T06:27:52.664391+00:00",
        "meta_object_name": "INSAT-3DS",
        "meta_object_id": "2024-033A",
        "meta_epoch": "2025-12-01T19:20:27.517056",
        "meta_mean_motion": 1.00269858,
        "meta_eccentricity": 0.0001575,
        "meta_inclination": 0.0129,
        "meta_ra_of_asc_node": 259.913,
        "meta_arg_of_pericenter": 352.9322,
        "meta_mean_anomaly": 190.3077,
        "meta_ephemeris_type": 0,
        "meta_classification_type": "U",
        "meta_norad_cat_id": 58990,
        "meta_element_set_no": 999,
        "meta_rev_at_epoch": 4508,
        "meta_bstar": 0,
        "meta_mean_motion_dot": -1.35e-06,
        "meta_mean_motion_ddot": 0,
        "tle_line1": "1 58990U 24033A   25335.80587404 -.00000135  00000+0  00000+0 0  9995",
        "tle_line2": "2 58990   0.0129 259.9130 0001575 352.9322 190.3077  1.00269858 45081"
      },
      "geometry": {
        "type": "Point",
        "coordinates": [
          -109.56822933123713,
          -0.014735870243359952
        ]
      }
    },
    {
      "type": "Feature",
      "properties": {
        "norad_id": 59051,
        "name": "METEOR-M2 4",
        "group": "weather",
        "lat": -51.53828238893259,
        "lon": 102.2618677625688,
        "alt_km": 829.1348242081322,
        "timestamp": "2025-12-02T06:27:52.664402+00:00",
        "meta_object_name": "METEOR-M2 4",
        "meta_object_id": "2024-039A",
        "meta_epoch": "2025-12-01T20:56:04.458048",
        "meta_mean_motion": 14.22398489,
        "meta_eccentricity": 0.0007621,
        "meta_inclination": 98.6751,
        "meta_ra_of_asc_node": 292.9524,
        "meta_arg_of_pericenter": 28.6161,
        "meta_mean_anomaly": 331.5434,
        "meta_ephemeris_type": 0,
        "meta_classification_type": "U",
        "meta_norad_cat_id": 59051,
        "meta_element_set_no": 999,
        "meta_rev_at_epoch": 9121,
        "meta_bstar": 4.2145e-05,
        "meta_mean_motion_dot": 5e-07,
        "meta_mean_motion_ddot": 0,
        "tle_line1": "1 59051U 24039A   25335.87227382  .00000050  00000+0  42145-4 0  9999",
        "tle_line2": "2 59051  98.6751 292.9524 0007621  28.6161 331.5434 14.22398489 91217"
      },
      "geometry": {
        "type": "Point",
        "coordinates": [
          102.2618677625688,
          -51.53828238893259
        ]
      }
    },
    {
      "type": "Feature",
      "properties": {
        "norad_id": 60133,
        "name": "GOES 19",
        "group": "weather",
        "lat": -0.004376953424448741,
        "lon": 93.14497296683237,
        "alt_km": 35790.63186984655,
        "timestamp": "2025-12-02T06:27:52.664413+00:00",
        "meta_object_name": "GOES 19",
        "meta_object_id": "2024-119A",
        "meta_epoch": "2025-12-01T18:35:24.333216",
        "meta_mean_motion": 1.00271597,
        "meta_eccentricity": 0.0001165,
        "meta_inclination": 0.0159,
        "meta_ra_of_asc_node": 141.7458,
        "meta_arg_of_pericenter": 156.5209,
        "meta_mean_anomaly": 336.2961,
        "meta_ephemeris_type": 0,
        "meta_classification_type": "U",
        "meta_norad_cat_id": 60133,
        "meta_element_set_no": 999,
        "meta_rev_at_epoch": 498,
        "meta_bstar": 0,
        "meta_mean_motion_dot": -2.27e-06,
        "meta_mean_motion_ddot": 0,
        "tle_line1": "1 60133U 24119A   25335.77458719 -.00000227  00000+0  00000+0 0  9996",
        "tle_line2": "2 60133   0.0159 141.7458 0001165 156.5209 336.2961  1.00271597  4984"
      },
      "geometry": {
        "type": "Point",
        "coordinates": [
          93.14497296683237,
          -0.004376953424448741
        ]
      }
    },
    {
      "type": "Feature",
      "properties": {
        "norad_id": 65815,
        "name": "FENGYUN 3H",
        "group": "weather",
        "lat": -25.08598858075425,
        "lon": 91.99803653683621,
        "alt_km": 831.5879984689727,
        "timestamp": "2025-12-02T06:27:52.664423+00:00",
        "meta_object_name": "FENGYUN 3H",
        "meta_object_id": "2025-219A",
        "meta_epoch": "2025-12-01T19:21:12.809664",
        "meta_mean_motion": 14.19899557,
        "meta_eccentricity": 6.55e-05,
        "meta_inclination": 98.6567,
        "meta_ra_of_asc_node": 275.635,
        "meta_arg_of_pericenter": 67.6554,
        "meta_mean_anomaly": 292.4692,
        "meta_ephemeris_type": 0,
        "meta_classification_type": "U",
        "meta_norad_cat_id": 65815,
        "meta_element_set_no": 999,
        "meta_rev_at_epoch": 937,
        "meta_bstar": 7.3126e-05,
        "meta_mean_motion_dot": 1.12e-06,
        "meta_mean_motion_ddot": 0,
        "tle_line1": "1 65815U 25219A   25335.80639826  .00000112  00000+0  73126-4 0  9990",
        "tle_line2": "2 65815  98.6567 275.6350 0000655  67.6554 292.4692 14.19899557  9376"
      },
      "geometry": {
        "type": "Point",
        "coordinates": [
          91.99803653683621,
          -25.08598858075425
        ]
      }
    }
  ]
}